IRIDIUM 135             
1 43070U 17083A   26165.91897185  .00000020  00000+0  38742-7 0  9993
2 43070  86.3963 322.9638 0002170  91.3049 268.8395 14.34217706443827
IRIDIUM 138             
1 43071U 17083B   26166.15364737 -.00000025  00000+0 -15903-4 0  9991
2 43071  86.3973 322.5609 0002225  87.7131 272.4320 14.34217165443845
IRIDIUM 116             
1 43072U 17083C   26166.19170275  .00000035  00000+0  54930-5 0  9991
2 43072  86.3961 322.8358 0001934  97.6715 262.4700 14.34217855443882
IRIDIUM 130             
1 43073U 17083D   26166.15998935  .00000025  00000+0  20177-5 0  9994
2 43073  86.3966 323.1243 0001825  91.8522 268.2882 14.34217630443826
IRIDIUM 151             
1 43074U 17083E   26166.13461998  .00000036  00000+0  57290-5 0  9995
2 43074  86.3963 322.9173 0002153  92.3025 267.8418 14.34217783443843
IRIDIUM 134             
1 43075U 17083F   26166.17267496  .00000032  00000+0  41971-5 0  9992
2 43075  86.3965 322.9095 0002090  90.8553 269.2882 14.34217919443817
IRIDIUM 137             
1 43076U 17083G   26166.18536046  .00000041  00000+0  75284-5 0  9998
2 43076  86.3967 322.9969 0002202 103.8182 256.3259 14.34217898443886
IRIDIUM 141             
1 43077U 17083H   26166.17901797  .00000027  00000+0  24175-5 0  9994
2 43077  86.3961 322.8303 0002218  90.9005 269.2446 14.34217829443884
IRIDIUM 153             
1 43078U 17083J   26166.27073429  .00000020  00000+0  20409-6 0  9998
2 43078  86.3958 291.2721 0002273  89.9485 270.1972 14.34217678445008
IRIDIUM 131             
1 43079U 17083K   26166.16633132  .00000127  00000+0  38153-4 0  9991
2 43079  86.3967 323.0214 0002229  92.2697 267.8754 14.34218818443818
IRIDIUM 144             
1 43249U 18030A   26166.27707507  .00000081  00000+0  21775-4 0  9994
2 43249  86.3957 291.1987 0002102  96.3334 263.8101 14.34218372429867
IRIDIUM 149             
1 43250U 18030B   26166.28341954 -.00000024  00000+0 -15583-4 0  9996
2 43250  86.3953 291.1632 0002141  93.7918 266.3522 14.34217296429885
IRIDIUM 157             
1 43251U 18030C   26166.30244695  .00000012  00000+0 -27299-5 0  9998
2 43251  86.3958 291.2082 0002197  94.1108 266.0339 14.34217662429866
IRIDIUM 140             
1 43252U 18030D   26166.32147477  .00000017  00000+0 -99784-6 0  9995
2 43252  86.3957 291.2127 0002140  93.0356 267.1084 14.34217612429928
IRIDIUM 145             
1 43253U 18030E   26166.09948342  .00000058  00000+0  13514-4 0  9999
2 43253  86.3956 291.2779 0001964 100.3289 259.8129 14.34217653429823
IRIDIUM 146             
1 43254U 18030F   26166.28976141  .00000040  00000+0  70856-5 0  9993
2 43254  86.3957 291.2106 0002098  96.4208 263.7227 14.34217864429865
IRIDIUM 148             
1 43255U 18030G   26166.04874349  .00000053  00000+0  11836-4 0  9991
2 43255  86.3957 291.3544 0002248  96.6341 263.5111 14.34217827429869
IRIDIUM 142             
1 43256U 18030H   26166.29610386  .00000084  00000+0  22965-4 0  9997
2 43256  86.3954 291.1401 0002071  98.2605 261.8825 14.34217783429866
IRIDIUM 150             
1 43257U 18030J   26166.26439153  .00000013  00000+0 -22577-5 0  9999
2 43257  86.3957 291.2695 0002135  93.2940 266.8501 14.34217575429881
IRIDIUM 143             
1 43258U 18030K   26166.31513180  .00000143  00000+0  43859-4 0  9997
2 43258  86.3961 291.3409 0002071  95.9686 264.1746 14.34217625429828
IRIDIUM 161             
1 43478U 18047C   26166.22773139  .00000276  00000+0  76043-4 0  9999
2 43478  86.4482  89.2904 0002536  85.2892 274.8598 14.43281977424854
IRIDIUM 152             
1 43479U 18047D   26166.28785002  .00000095  00000+0  26857-4 0  9995
2 43479  86.3959  89.1264 0002334  83.3148 276.8313 14.34218233422210
IRIDIUM 147             
1 43480U 18047E   26166.22442457  .00000028  00000+0  29465-5 0  9990
2 43480  86.3959  89.1580 0002137  85.6024 274.5416 14.34217581422205
IRIDIUM 110             
1 43481U 18047F   26166.30053615  .00000088  00000+0  24192-4 0  9991
2 43481  86.3961  89.2179 0002575  82.6980 277.4509 14.34217116422207
IRIDIUM 162             
1 43482U 18047G   26166.29077077  .00000278  00000+0  76531-4 0  9993
2 43482  86.4482  89.1551 0002278  82.5453 277.6007 14.43280683424851
IRIDIUM 160             
1 43569U 18061A   26166.24637123  .00000093  00000+0  26017-4 0  9993
2 43569  86.3964  57.6090 0002278  85.8942 274.2514 14.34218131413097
IRIDIUM 166             
1 43570U 18061B   26166.13220454  .00000056  00000+0  13035-4 0  9993
2 43570  86.3964  57.6073 0002111  86.2440 273.8997 14.34217861413105
IRIDIUM 158             
1 43571U 18061C   26166.17026028  .00000056  00000+0  13100-4 0  9992
2 43571  86.3962  57.6012 0002194  82.0156 278.1289 14.34217741413071
IRIDIUM 165             
1 43572U 18061D   26166.12586094  .00000113  00000+0  33198-4 0  9995
2 43572  86.3965  57.6662 0002068  86.3689 273.7743 14.34217446413094
IRIDIUM 155             
1 43573U 18061E   26166.22734353  .00000036  00000+0  58806-5 0  9998
2 43573  86.3960  57.4928 0002113  82.2219 277.9216 14.34217654413078
