OBJECT_NAME,OBJECT_ID,EPOCH,MEAN_MOTION,ECCENTRICITY,INCLINATION,RA_OF_ASC_NODE,ARG_OF_PERICENTER,MEAN_ANOMALY,EPHEMERIS_TYPE,CLASSIFICATION_TYPE,NORAD_CAT_ID,ELEMENT_SET_NO,REV_AT_EPOCH,BSTAR,MEAN_MOTION_DOT,MEAN_MOTION_DDOT
IRIDIUM 135,2017-083A,2026-06-14T22:03:19.167840,14.34217706,.000217,86.3963,322.9638,91.3049,268.8395,0,U,43070,999,44382,.38742E-7,.2E-6,0
IRIDIUM 138,2017-083B,2026-06-15T03:41:15.132768,14.34217165,.00022252,86.3973,322.5609,87.7131,272.4320,0,U,43071,999,44384,-.15903381E-4,-.25E-6,0
IRIDIUM 116,2017-083C,2026-06-15T04:36:03.117600,14.34217855,.0001934,86.3961,322.8358,97.6715,262.4700,0,U,43072,999,44388,.549297E-5,.35E-6,0
IRIDIUM 130,2017-083D,2026-06-15T03:50:23.079840,14.34217630,.00018252,86.3966,323.1243,91.8522,268.2882,0,U,43073,999,44382,.2017661E-5,.25E-6,0
IRIDIUM 151,2017-083E,2026-06-15T03:13:51.166272,14.34217783,.00021533,86.3963,322.9173,92.3025,267.8418,0,U,43074,999,44384,.572903E-5,.36E-6,0
IRIDIUM 134,2017-083F,2026-06-15T04:08:39.116544,14.34217919,.00020901,86.3965,322.9095,90.8553,269.2882,0,U,43075,999,44381,.4197092E-5,.32E-6,0
IRIDIUM 137,2017-083G,2026-06-15T04:26:55.143744,14.34217898,.00022028,86.3967,322.9969,103.8182,256.3259,0,U,43076,999,44388,.7528354E-5,.41E-6,0
IRIDIUM 141,2017-083H,2026-06-15T04:17:47.152608,14.34217829,.00022187,86.3961,322.8303,90.9005,269.2446,0,U,43077,999,44388,.2417474E-5,.27E-6,0
IRIDIUM 153,2017-083J,2026-06-15T06:29:51.442656,14.34217678,.00022731,86.3958,291.2721,89.9485,270.1972,0,U,43078,999,44500,.204087E-6,.2E-6,0
IRIDIUM 131,2017-083K,2026-06-15T03:59:31.026048,14.34218818,.00022298,86.3967,323.0214,92.2697,267.8754,0,U,43079,999,44381,.38153192E-4,.127E-5,0
IRIDIUM 144,2018-030A,2026-06-15T06:38:59.286048,14.34218372,.00021027,86.3957,291.1987,96.3334,263.8101,0,U,43249,999,42986,.21774552E-4,.81E-6,0
IRIDIUM 149,2018-030B,2026-06-15T06:48:07.448256,14.34217296,.00021412,86.3953,291.1632,93.7918,266.3522,0,U,43250,999,42988,-.15582627E-4,-.24E-6,0
IRIDIUM 157,2018-030C,2026-06-15T07:15:31.416480,14.34217662,.00021977,86.3958,291.2082,94.1108,266.0339,0,U,43251,999,42986,-.2729904E-5,.12E-6,0
IRIDIUM 140,2018-030D,2026-06-15T07:42:55.420128,14.34217612,.00021405,86.3957,291.2127,93.0356,267.1084,0,U,43252,999,42992,-.997843E-6,.17E-6,0
IRIDIUM 145,2018-030E,2026-06-15T02:23:15.367488,14.34217653,.00019646,86.3956,291.2779,100.3289,259.8129,0,U,43253,999,42982,.13513817E-4,.58E-6,0
IRIDIUM 146,2018-030F,2026-06-15T06:57:15.385824,14.34217864,.00020986,86.3957,291.2106,96.4208,263.7227,0,U,43254,999,42986,.7085551E-5,.4E-6,0
IRIDIUM 148,2018-030G,2026-06-15T01:10:11.437536,14.34217827,.00022486,86.3957,291.3544,96.6341,263.5111,0,U,43255,999,42986,.11835677E-4,.53E-6,0
IRIDIUM 142,2018-030H,2026-06-15T07:06:23.373504,14.34217783,.00020717,86.3954,291.1401,98.2605,261.8825,0,U,43256,999,42986,.22965251E-4,.84E-6,0
IRIDIUM 150,2018-030J,2026-06-15T06:20:43.428192,14.34217575,.00021359,86.3957,291.2695,93.2940,266.8501,0,U,43257,999,42988,-.2257703E-5,.13E-6,0
IRIDIUM 143,2018-030K,2026-06-15T07:33:47.387520,14.34217625,.00020715,86.3961,291.3409,95.9686,264.1746,0,U,43258,999,42982,.43858765E-4,.143E-5,0
IRIDIUM 161,2018-047C,2026-06-15T05:27:55.992096,14.43281977,.00025362,86.4482,89.2904,85.2892,274.8598,0,U,43478,999,42485,.76043057E-4,.276E-5,0
IRIDIUM 152,2018-047D,2026-06-15T06:54:30.241728,14.34218233,.00023349,86.3959,89.1264,83.3148,276.8313,0,U,43479,999,42221,.26856554E-4,.95E-6,0
IRIDIUM 147,2018-047E,2026-06-15T05:23:10.282848,14.34217581,.00021373,86.3959,89.1580,85.6024,274.5416,0,U,43480,999,42220,.294647E-5,.28E-6,0
IRIDIUM 110,2018-047F,2026-06-15T07:12:46.323360,14.34217116,.00025756,86.3961,89.2179,82.6980,277.4509,0,U,43481,999,42220,.24192151E-4,.88E-6,0
IRIDIUM 162,2018-047G,2026-06-15T06:58:42.594528,14.43280683,.0002278,86.4482,89.1551,82.5453,277.6007,0,U,43482,999,42485,.7653068E-4,.278E-5,0
IRIDIUM 160,2018-061A,2026-06-15T05:54:46.474272,14.34218131,.00022788,86.3964,57.6090,85.8942,274.2514,0,U,43569,999,41309,.26016804E-4,.93E-6,0
IRIDIUM 166,2018-061B,2026-06-15T03:10:22.472256,14.34217861,.00021117,86.3964,57.6073,86.2440,273.8997,0,U,43570,999,41310,.13035463E-4,.56E-6,0
IRIDIUM 158,2018-061C,2026-06-15T04:05:10.488192,14.34217741,.0002194,86.3962,57.6012,82.0156,278.1289,0,U,43571,999,41307,.13099897E-4,.56E-6,0
IRIDIUM 165,2018-061D,2026-06-15T03:01:14.385216,14.34217446,.00020688,86.3965,57.6662,86.3689,273.7743,0,U,43572,999,41309,.3319789E-4,.113E-5,0
IRIDIUM 155,2018-061E,2026-06-15T05:27:22.480992,14.34217654,.0002113,86.3960,57.4928,82.2219,277.9216,0,U,43573,999,41307,.5880639E-5,.36E-6,0
